[{"OBJECT_NAME":"SL-8 R/B","OBJECT_ID":"1979-089B","EPOCH":"2026-04-24T04:12:41.650848","MEAN_MOTION":14.42378181,"ECCENTRICITY":0.00157111,"INCLINATION":74.0711,"RA_OF_ASC_NODE":6.8445,"ARG_OF_PERICENTER":171.0907,"MEAN_ANOMALY":189.0532,"EPHEMERIS_TYPE":0,"CLASSIFICATION_TYPE":"U","NORAD_CAT_ID":11574,"ELEMENT_SET_NO":999,"REV_AT_EPOCH":44266,"BSTAR":6.0077514e-5,"MEAN_MOTION_DOT":1.73e-6,"MEAN_MOTION_DDOT":0},{"OBJECT_NAME":"SL-14 R/B","OBJECT_ID":"1980-005B","EPOCH":"2026-04-24T03:54:41.661216","MEAN_MOTION":14.9097967,"ECCENTRICITY":0.00160628,"INCLINATION":82.5124,"RA_OF_ASC_NODE":264.0853,"ARG_OF_PERICENTER":17.3244,"MEAN_ANOMALY":342.852,"EPHEMERIS_TYPE":0,"CLASSIFICATION_TYPE":"U","NORAD_CAT_ID":11672,"ELEMENT_SET_NO":999,"REV_AT_EPOCH":48326,"BSTAR":4.2950285e-5,"MEAN_MOTION_DOT":4.5e-6,"MEAN_MOTION_DDOT":0},{"OBJECT_NAME":"SL-8 R/B","OBJECT_ID":"1981-003B","EPOCH":"2026-04-23T08:13:23.930976","MEAN_MOTION":15.12759593,"ECCENTRICITY":0.0256577,"INCLINATION":82.9363,"RA_OF_ASC_NODE":248.6693,"ARG_OF_PERICENTER":23.5105,"MEAN_ANOMALY":337.7608,"EPHEMERIS_TYPE":0,"CLASSIFICATION_TYPE":"U","NORAD_CAT_ID":12139,"ELEMENT_SET_NO":999,"REV_AT_EPOCH":32142,"BSTAR":0.00027545575,"MEAN_MOTION_DOT":0.00011103,"MEAN_MOTION_DDOT":0},{"OBJECT_NAME":"SL-3 R/B","OBJECT_ID":"1981-046B","EPOCH":"2026-04-24T07:43:11.235648","MEAN_MOTION":15.43069814,"ECCENTRICITY":0.00184062,"INCLINATION":81.2308,"RA_OF_ASC_NODE":234.8958,"ARG_OF_PERICENTER":218.181,"MEAN_ANOMALY":141.8131,"EPHEMERIS_TYPE":0,"CLASSIFICATION_TYPE":"U","NORAD_CAT_ID":12465,"ELEMENT_SET_NO":999,"REV_AT_EPOCH":44546,"BSTAR":0.00021726407,"MEAN_MOTION_DOT":9.686e-5,"MEAN_MOTION_DDOT":0},{"OBJECT_NAME":"SL-3 R/B","OBJECT_ID":"1981-103B","EPOCH":"2026-04-24T05:05:04.639200","MEAN_MOTION":15.21838813,"ECCENTRICITY":0.00142403,"INCLINATION":81.1584,"RA_OF_ASC_NODE":160.0215,"ARG_OF_PERICENTER":130.5786,"MEAN_ANOMALY":229.6688,"EPHEMERIS_TYPE":0,"CLASSIFICATION_TYPE":"U","NORAD_CAT_ID":12904,"ELEMENT_SET_NO":999,"REV_AT_EPOCH":98015,"BSTAR":0.00014538764,"MEAN_MOTION_DOT":3.337e-5,"MEAN_MOTION_DDOT":0},{"OBJECT_NAME":"SL-3 R/B","OBJECT_ID":"1982-013B","EPOCH":"2026-04-24T06:26:28.038912","MEAN_MOTION":15.22381596,"ECCENTRICITY":0.0022751,"INCLINATION":81.1714,"RA_OF_ASC_NODE":107.3247,"ARG_OF_PERICENTER":29.6125,"MEAN_ANOMALY":330.6389,"EPHEMERIS_TYPE":0,"CLASSIFICATION_TYPE":"U","NORAD_CAT_ID":13068,"ELEMENT_SET_NO":999,"REV_AT_EPOCH":41128,"BSTAR":0.00015547422,"MEAN_MOTION_DOT":3.64e-5,"MEAN_MOTION_DDOT":0},{"OBJECT_NAME":"SL-3 R/B","OBJECT_ID":"1982-039B","EPOCH":"2026-04-24T05:47:31.938432","MEAN_MOTION":15.10295754,"ECCENTRICITY":0.00283102,"INCLINATION":81.1488,"RA_OF_ASC_NODE":163.4177,"ARG_OF_PERICENTER":169.4358,"MEAN_ANOMALY":190.7469,"EPHEMERIS_TYPE":0,"CLASSIFICATION_TYPE":"U","NORAD_CAT_ID":13154,"ELEMENT_SET_NO":999,"REV_AT_EPOCH":38851,"BSTAR":7.2637874e-5,"MEAN_MOTION_DOT":1.224e-5,"MEAN_MOTION_DDOT":0},{"OBJECT_NAME":"SL-3 R/B","OBJECT_ID":"1982-079B","EPOCH":"2026-04-24T06:23:15.132768","MEAN_MOTION":15.2530086,"ECCENTRICITY":0.00243418,"INCLINATION":81.1445,"RA_OF_ASC_NODE":139.2434,"ARG_OF_PERICENTER":15.2806,"MEAN_ANOMALY":344.9157,"EPHEMERIS_TYPE":0,"CLASSIFICATION_TYPE":"U","NORAD_CAT_ID":13403,"ELEMENT_SET_NO":999,"REV_AT_EPOCH":38464,"BSTAR":0.00014772702,"MEAN_MOTION_DOT":3.776e-5,"MEAN_MOTION_DDOT":0},{"OBJECT_NAME":"SL-14 R/B","OBJECT_ID":"1982-092B","EPOCH":"2026-04-24T00:09:38.937024","MEAN_MOTION":14.86703514,"ECCENTRICITY":0.00211826,"INCLINATION":82.5649,"RA_OF_ASC_NODE":98.996,"ARG_OF_PERICENTER":147.0407,"MEAN_ANOMALY":270.5329,"EPHEMERIS_TYPE":0,"CLASSIFICATION_TYPE":"U","NORAD_CAT_ID":13553,"ELEMENT_SET_NO":999,"REV_AT_EPOCH":33566,"BSTAR":3.375478e-5,"MEAN_MOTION_DOT":3.26e-6,"MEAN_MOTION_DDOT":0},{"OBJECT_NAME":"SL-3 R/B","OBJECT_ID":"1983-010B","EPOCH":"2026-04-24T00:50:53.869344","MEAN_MOTION":15.47687481,"ECCENTRICITY":0.00151246,"INCLINATION":81.1012,"RA_OF_ASC_NODE":306.5848,"ARG_OF_PERICENTER":247.5997,"MEAN_ANOMALY":112.3646,"EPHEMERIS_TYPE":0,"CLASSIFICATION_TYPE":"U","NORAD_CAT_ID":13819,"ELEMENT_SET_NO":999,"REV_AT_EPOCH":36495,"BSTAR":0.00018453717,"MEAN_MOTION_DOT":9.612e-5,"MEAN_MOTION_DDOT":0},{"OBJECT_NAME":"SL-3 R/B","OBJECT_ID":"1983-075B","EPOCH":"2026-04-24T04:50:46.899744","MEAN_MOTION":15.39427263,"ECCENTRICITY":0.00229655,"INCLINATION":97.6134,"RA_OF_ASC_NODE":120.5412,"ARG_OF_PERICENTER":69.3461,"MEAN_ANOMALY":291.0243,"EPHEMERIS_TYPE":0,"CLASSIFICATION_TYPE":"U","NORAD_CAT_ID":14208,"ELEMENT_SET_NO":999,"REV_AT_EPOCH":33715,"BSTAR":0.00023025762,"MEAN_MOTION_DOT":9.009e-5,"MEAN_MOTION_DDOT":0},{"OBJECT_NAME":"COSMOS 1536","OBJECT_ID":"1984-013A","EPOCH":"2026-04-24T06:47:29.220576","MEAN_MOTION":15.24424993,"ECCENTRICITY":0.00160711,"INCLINATION":82.5444,"RA_OF_ASC_NODE":62.4974,"ARG_OF_PERICENTER":118.0164,"MEAN_ANOMALY":242.2701,"EPHEMERIS_TYPE":0,"CLASSIFICATION_TYPE":"U","NORAD_CAT_ID":14699,"ELEMENT_SET_NO":999,"REV_AT_EPOCH":27956,"BSTAR":0.0002189619,"MEAN_MOTION_DOT":5.421e-5,"MEAN_MOTION_DDOT":0},{"OBJECT_NAME":"SL-14 R/B","OBJECT_ID":"1984-027B","EPOCH":"2026-04-24T06:43:03.583776","MEAN_MOTION":14.86021068,"ECCENTRICITY":0.00180509,"INCLINATION":82.5444,"RA_OF_ASC_NODE":202.2624,"ARG_OF_PERICENTER":177.6033,"MEAN_ANOMALY":182.5273,"EPHEMERIS_TYPE":0,"CLASSIFICATION_TYPE":"U","NORAD_CAT_ID":14820,"ELEMENT_SET_NO":999,"REV_AT_EPOCH":25440,"BSTAR":3.4795023e-5,"MEAN_MOTION_DOT":3.29e-6,"MEAN_MOTION_DDOT":0},{"OBJECT_NAME":"SL-8 R/B","OBJECT_ID":"1985-006B","EPOCH":"2026-04-24T05:32:49.646688","MEAN_MOTION":14.37810942,"ECCENTRICITY":0.00171973,"INCLINATION":74.0457,"RA_OF_ASC_NODE":177.3507,"ARG_OF_PERICENTER":79.8472,"MEAN_ANOMALY":336.3641,"EPHEMERIS_TYPE":0,"CLASSIFICATION_TYPE":"U","NORAD_CAT_ID":15483,"ELEMENT_SET_NO":999,"REV_AT_EPOCH":16057,"BSTAR":5.973785e-5,"MEAN_MOTION_DOT":1.54e-6,"MEAN_MOTION_DDOT":0},{"OBJECT_NAME":"SL-12 R/B(2)","OBJECT_ID":"1985-042D","EPOCH":"2026-04-24T03:48:44.773920","MEAN_MOTION":14.21994552,"ECCENTRICITY":0.00333838,"INCLINATION":71.1097,"RA_OF_ASC_NODE":351.6669,"ARG_OF_PERICENTER":52.8001,"MEAN_ANOMALY":118.5128,"EPHEMERIS_TYPE":0,"CLASSIFICATION_TYPE":"U","NORAD_CAT_ID":15772,"ELEMENT_SET_NO":999,"REV_AT_EPOCH":12085,"BSTAR":7.2067369e-5,"MEAN_MOTION_DOT":1.13e-6,"MEAN_MOTION_DDOT":0},{"OBJECT_NAME":"SL-14 R/B","OBJECT_ID":"1985-069B","EPOCH":"2026-04-24T02:47:09.423456","MEAN_MOTION":14.86475628,"ECCENTRICITY":0.00199002,"INCLINATION":82.5277,"RA_OF_ASC_NODE":342.2277,"ARG_OF_PERICENTER":45.3746,"MEAN_ANOMALY":314.909,"EPHEMERIS_TYPE":0,"CLASSIFICATION_TYPE":"U","NORAD_CAT_ID":15945,"ELEMENT_SET_NO":999,"REV_AT_EPOCH":17958,"BSTAR":3.0042418e-5,"MEAN_MOTION_DOT":2.91e-6,"MEAN_MOTION_DDOT":0},{"OBJECT_NAME":"SL-16 R/B","OBJECT_ID":"1985-097B","EPOCH":"2026-04-24T06:27:25.869888","MEAN_MOTION":14.16606657,"ECCENTRICITY":0.00081732,"INCLINATION":71.0043,"RA_OF_ASC_NODE":44.5918,"ARG_OF_PERICENTER":203.8475,"MEAN_ANOMALY":318.2988,"EPHEMERIS_TYPE":0,"CLASSIFICATION_TYPE":"U","NORAD_CAT_ID":16182,"ELEMENT_SET_NO":999,"REV_AT_EPOCH":9368,"BSTAR":-7.1950276e-5,"MEAN_MOTION_DOT":-1.91e-6,"MEAN_MOTION_DDOT":0}]
