SL-8 R/B                
1 11574U 79089B   26114.17548207  .00000173  00000+0  60078-4 0  9994
2 11574  74.0711   6.8445 0015711 171.0907 189.0532 14.42378181442666
SL-14 R/B               
1 11672U 80005B   26114.16298219  .00000450  00000+0  42950-4 0  9994
2 11672  82.5124 264.0853 0016062  17.3244 342.8520 14.90979670483264
SL-8 R/B                
1 12139U 81003B   26113.34263809  .00011103  00000+0  27546-3 0  9998
2 12139  82.9363 248.6693 0256577  23.5105 337.7608 15.12759593321428
SL-3 R/B                
1 12465U 81046B   26114.32165782  .00009686  00000+0  21726-3 0  9994
2 12465  81.2308 234.8958 0018406 218.1810 141.8131 15.43069814445464
SL-3 R/B                
1 12904U 81103B   26114.21185925  .00003337  00000+0  14539-3 0  9996
2 12904  81.1584 160.0215 0014240 130.5786 229.6688 15.21838813980155
SL-3 R/B                
1 13068U 82013B   26114.26838008  .00003640  00000+0  15547-3 0  9998
2 13068  81.1714 107.3247 0022751  29.6125 330.6389 15.22381596411288
SL-3 R/B                
1 13154U 82039B   26114.24134188  .00001224  00000+0  72638-4 0  9999
2 13154  81.1488 163.4177 0028310 169.4358 190.7469 15.10295754388515
SL-3 R/B                
1 13403U 82079B   26114.26614737  .00003776  00000+0  14773-3 0  9994
2 13403  81.1445 139.2434 0024341  15.2806 344.9157 15.25300860384646
SL-14 R/B               
1 13553U 82092B   26114.00670066  .00000326  00000+0  33755-4 0  9994
2 13553  82.5649  98.9960 0021182 147.0407 270.5329 14.86703514335661
SL-3 R/B                
1 13819U 83010B   26114.03534571  .00009612  00000+0  18454-3 0  9998
2 13819  81.1012 306.5848 0015124 247.5997 112.3646 15.47687481364958
SL-3 R/B                
1 14208U 83075B   26114.20193171  .00009009  00000+0  23026-3 0  9999
2 14208  97.6134 120.5412 0022965  69.3461 291.0243 15.39427263337157
COSMOS 1536             
1 14699U 84013A   26114.28297709  .00005421  00000+0  21896-3 0  9993
2 14699  82.5444  62.4974 0016071 118.0164 242.2701 15.24424993279566
SL-14 R/B               
1 14820U 84027B   26114.27990259  .00000329  00000+0  34795-4 0  9998
2 14820  82.5444 202.2624 0018050 177.6033 182.5273 14.86021068254402
SL-8 R/B                
1 15483U 85006B   26114.23113017  .00000154  00000+0  59738-4 0  9997
2 15483  74.0457 177.3507 0017197  79.8472 336.3641 14.37810942160576
SL-12 R/B(2)            
1 15772U 85042D   26114.15885155  .00000113  00000+0  72067-4 0  9993
2 15772  71.1097 351.6669 0033383  52.8001 118.5128 14.21994552120855
SL-14 R/B               
1 15945U 85069B   26114.11608129  .00000291  00000+0  30042-4 0  9998
2 15945  82.5277 342.2277 0019900  45.3746 314.9090 14.86475628179589
SL-16 R/B               
1 16182U 85097B   26114.26904942 -.00000191  00000+0 -71950-4 0  9995
2 16182  71.0043  44.5918 0008173 203.8475 318.2988 14.16606657 93681
